NORAD_CAT_ID,OBJECT_NAME,OBJECT_TYPE,EPOCH,MEAN_MOTION,ECCENTRICITY,INCLINATION,RA_OF_ASC_NODE,ARG_OF_PERICENTER,MEAN_ANOMALY,BSTAR,MEAN_MOTION_DOT,MEAN_MOTION_DDOT,TLE_LINE0,TLE_LINE1,TLE_LINE2,SEMIMAJOR_AXIS,PERIOD,APOGEE,PERIGEE,DECAYED
55787.0,STARLINK-5811,PAYLOAD,2023-11-03 23:07:22,14.98328587,0.0002741,70.0008,204.6952,269.8317,90.2528,-1.0844e-05,-2.22e-06,0.0,0 STARLINK-5811,1 55787U 23028AY  23307.96345339 -.00000222  00000-0 -10844-4 0  9993,2 55787  70.0008 204.6952 0002741 269.8317  90.2528 14.98328587 38694,6950.197,96.107,573.967,570.157,0.0
55787.0,STARLINK-5811,PAYLOAD,2023-11-04 10:20:18,14.98333605,0.0002566,70.0013,203.5176,273.8656,86.221,-0.00018024,-2.243e-05,0.0,0 STARLINK-5811,1 55787U 23028AY  23308.43077484 -.00002243  00000-0 -18024-3 0  9991,2 55787  70.0013 203.5176 0002566 273.8656  86.2210 14.98333605 38760,6950.182,96.107,573.83,570.263,0.0
55787.0,STARLINK-5811,PAYLOAD,2023-11-04 19:57:07,14.98314423,0.000269,70.001,202.5072,266.5789,93.5062,0.00015991,1.815e-05,0.0,0 STARLINK-5811,1 55787U 23028AY  23308.83133756  .00001815  00000-0  15991-3 0  9992,2 55787  70.0010 202.5072 0002690 266.5789  93.5062 14.98314423 38814,6950.241,96.108,573.976,570.236,0.0
55787.0,STARLINK-5811,PAYLOAD,2023-11-04 23:09:23,14.98328781,0.0002694,70.001,202.1708,263.4429,96.6423,-4.0363e-05,-5.74e-06,0.0,0 STARLINK-5811,1 55787U 23028AY  23308.96485517 -.00000574  00000-0 -40363-4 0  9996,2 55787  70.0010 202.1708 0002694 263.4429  96.6423 14.98328781 38847,6950.197,96.107,573.934,570.189,0.0
55787.0,STARLINK-5811,PAYLOAD,2023-11-05 02:21:38,14.98340449,0.0002859,70.0005,201.8349,264.4667,95.6166,6.9659e-05,7.38e-06,0.0,0 STARLINK-5811,1 55787U 23028AY  23309.09836488  .00000738  00000-0  69659-4 0  9997,2 55787  70.0005 201.8349 0002859 264.4667  95.6166 14.98340449 38855,6950.161,96.106,574.013,570.039,0.0
55787.0,STARLINK-5811,PAYLOAD,2023-11-05 23:11:21,14.98360265,0.0002497,70.0007,199.6457,267.718,92.3693,0.00033945,3.963e-05,0.0,0 STARLINK-5811,1 55787U 23028AY  23309.96622071  .00003963  00000-0  33945-3 0  9995,2 55787  70.0007 199.6457 0002497 267.7180  92.3693 14.98360265 38997,6950.099,96.105,573.7,570.229,0.0
55787.0,STARLINK-5811,PAYLOAD,2023-11-06 02:23:36,14.98367256,0.0002852,70.0001,199.3095,270.1843,89.899,0.00039178,4.589e-05,0.0,0 STARLINK-5811,1 55787U 23028AY  23310.09973196  .00004589  00000-0  39178-3 0  9997,2 55787  70.0001 199.3095 0002852 270.1843  89.8990 14.98367256 39006,6950.078,96.105,573.925,569.961,0.0
55787.0,STARLINK-5811,PAYLOAD,2023-11-06 10:24:19,14.98334911,0.0002953,70.0014,198.4681,266.8336,93.2486,6.3219e-05,6.62e-06,0.0,0 STARLINK-5811,1 55787U 23028AY  23310.43355637  .00000662  00000-0  63219-4 0  9991,2 55787  70.0014 198.4681 0002953 266.8336  93.2486 14.98334911 39058,6950.178,96.107,574.095,569.99,0.0
55787.0,STARLINK-5811,PAYLOAD,2023-11-06 20:01:09,14.98316142,0.0002862,70.0011,197.4581,263.6695,96.4138,-0.00012896,-1.631e-05,0.0,0 STARLINK-5811,1 55787U 23028AY  23310.83413437 -.00001631  00000-0 -12896-3 0  9991,2 55787  70.0011 197.4581 0002862 263.6695  96.4138 14.98316142 39117,6950.236,96.108,574.09,570.112,0.0
55787.0,STARLINK-5811,PAYLOAD,2023-11-06 23:13:24,14.98323476,0.0002621,70.0007,197.1209,259.97,100.1164,-8.7046e-05,-1.131e-05,0.0,0 STARLINK-5811,1 55787U 23028AY  23310.96764925 -.00001131  00000-0 -87046-4 0  9991,2 55787  70.0007 197.1209 0002621 259.9700 100.1164 14.98323476 39147,6950.213,96.107,573.9,570.256,0.0
55787.0,STARLINK-5811,PAYLOAD,2023-11-07 02:25:41,14.98323672,0.0002775,70.001,196.7845,263.8571,96.2272,-6.919e-05,-9.18e-06,0.0,0 STARLINK-5811,1 55787U 23028AY  23311.10116901 -.00000918  00000-0 -69190-4 0  9995,2 55787  70.0010 196.7845 0002775 263.8571  96.2272 14.98323672 39156,6950.212,96.107,574.006,570.149,0.0
55787.0,STARLINK-5811,PAYLOAD,2023-11-07 10:26:21,14.98328756,0.0002506,70.0015,195.9436,271.5727,88.5145,-0.00023572,-2.904e-05,0.0,0 STARLINK-5811,1 55787U 23028AY  23311.43497117 -.00002904  00000-0 -23572-3 0  9992,2 55787  70.0015 195.9436 0002506 271.5727  88.5145 14.98328756 39217,6950.197,96.107,573.803,570.32,0.0
55787.0,STARLINK-5811,PAYLOAD,2023-11-07 20:03:13,14.98290112,0.0003016,70.0005,194.9349,268.1236,91.9577,-0.00066648,-8.028e-05,0.0,0 STARLINK-5811,1 55787U 23028AY  23311.83557162 -.00008028  00000-0 -66648-3 0  9997,2 55787  70.0005 194.9349 0003016 268.1236  91.9577 14.98290112 39268,6950.316,96.11,574.277,570.085,0.0
55787.0,STARLINK-5811,PAYLOAD,2023-11-08 02:27:43,14.98328071,0.0002762,69.9999,194.2606,267.8481,92.2362,-0.00034183,-4.169e-05,0.0,0 STARLINK-5811,1 55787U 23028AY  23312.10258449 -.00004169  00000-0 -34183-3 0  9995,2 55787  69.9999 194.2606 0002762 267.8481  92.2362 14.98328071 39308,6950.199,96.107,573.984,570.144,0.0
55787.0,STARLINK-5811,PAYLOAD,2023-11-08 20:05:11,14.98319333,0.0002711,70.0011,192.4086,264.8037,95.2812,0.00020123,2.308e-05,0.0,0 STARLINK-5811,1 55787U 23028AY  23312.83693847  .00002308  00000-0  20123-3 0  9990,2 55787  70.0011 192.4086 0002711 264.8037  95.2812 14.98319333 39412,6950.226,96.108,573.975,570.207,0.0
55787.0,STARLINK-5811,PAYLOAD,2023-11-08 21:41:19,14.98325862,0.0002622,70.0009,192.2407,251.492,108.5954,0.00026522,3.073e-05,0.0,0 STARLINK-5811,1 55787U 23028AY  23312.90369248  .00003073  00000-0  26522-3 0  9992,2 55787  70.0009 192.2407 0002622 251.4920 108.5954 14.98325862 39439,6950.206,96.107,573.893,570.248,0.0
55787.0,STARLINK-5811,PAYLOAD,2023-11-09 02:29:43,14.98330203,0.0002538,70.0008,191.7362,251.1892,108.8992,0.00023428,2.703e-05,0.0,0 STARLINK-5811,1 55787U 23028AY  23313.10397140  .00002703  00000-0  23428-3 0  9998,2 55787  70.0008 191.7362 0002538 251.1892 108.8992 14.98330203 39455,6950.192,96.107,573.821,570.293,0.0
55787.0,STARLINK-5811,PAYLOAD,2023-11-09 16:54:55,14.98315831,0.0002778,70.0004,190.2217,261.2989,98.7855,0.00057802,6.808e-05,0.0,0 STARLINK-5811,1 55787U 23028AY  23313.70481230  .00006808  00000-0  57802-3 0  9991,2 55787  70.0004 190.2217 0002778 261.2989  98.7855 14.98315831 39544,6950.237,96.108,574.032,570.171,0.0
55787.0,STARLINK-5811,PAYLOAD,2023-11-09 21:43:20,14.98315118,0.0002703,70.0003,189.7159,261.0426,99.0427,0.0004952,5.818e-05,0.0,0 STARLINK-5811,1 55787U 23028AY  23313.90509628  .00005818  00000-0  49520-3 0  9993,2 55787  70.0003 189.7159 0002703 261.0426  99.0427 14.98315118 39584,6950.239,96.108,573.983,570.225,0.0
55787.0,STARLINK-5811,PAYLOAD,2023-11-10 08:56:16,14.98349379,0.0002717,70.0007,188.5381,270.561,89.5238,-0.00019339,-2.401e-05,0.0,0 STARLINK-5811,1 55787U 23028AY  23314.37241268 -.00002401  00000-0 -19339-3 0  9990,2 55787  70.0007 188.5381 0002717 270.5610  89.5238 14.98349379 39644,6950.133,96.106,573.886,570.11,0.0
55787.0,STARLINK-5811,PAYLOAD,2023-11-10 20:09:13,14.98337159,0.0002499,70.0007,187.3602,262.0201,98.0674,-9.7012e-05,-1.25e-05,0.0,0 STARLINK-5811,1 55787U 23028AY  23314.83973755 -.00001250  00000-0 -97012-4 0  9990,2 55787  70.0007 187.3602 0002499 262.0201  98.0674 14.98337159 39716,6950.171,96.107,573.773,570.299,0.0
55787.0,STARLINK-5811,PAYLOAD,2023-11-10 21:45:21,14.98338358,0.0002488,70.0007,187.1918,261.8265,98.2612,-8.5296e-05,-1.111e-05,0.0,0 STARLINK-5811,1 55787U 23028AY  23314.90649599 -.00001111  00000-0 -85296-4 0  9991,2 55787  70.0007 187.1918 0002488 261.8265  98.2612 14.98338358 39737,6950.167,96.106,573.761,570.303,0.0
55787.0,STARLINK-5811,PAYLOAD,2023-11-11 08:58:17,14.98336757,0.0002533,70.0004,186.0137,267.8014,92.2855,-8.1981e-05,-1.071e-05,0.0,0 STARLINK-5811,1 55787U 23028AY  23315.37381502 -.00001071  00000-0 -81981-4 0  9992,2 55787  70.0004 186.0137 0002533 267.8014  92.2855 14.98336757 39806,6950.172,96.107,573.797,570.277,0.0
55787.0,STARLINK-5811,PAYLOAD,2023-11-11 20:11:13,14.98336549,0.0002763,70.0003,184.8355,269.7492,90.335,-0.00010351,-1.328e-05,0.0,0 STARLINK-5811,1 55787U 23028AY  23315.84113298 -.00001328  00000-0 -10351-3 0  9996,2 55787  70.0003 184.8355 0002763 269.7492  90.3350 14.98336549 39863,6950.173,96.107,573.958,570.117,0.0
55787.0,STARLINK-5811,PAYLOAD,2023-11-11 21:47:21,14.98336749,0.0002798,70.0001,184.667,270.3715,89.7123,-0.00010049,-1.292e-05,0.0,0 STARLINK-5811,1 55787U 23028AY  23315.90789240 -.00001292  00000-0 -10049-3 0  9993,2 55787  70.0001 184.6670 0002798 270.3715  89.7123 14.98336749 39887,6950.172,96.107,573.982,570.092,0.0
55787.0,STARLINK-5811,PAYLOAD,2023-11-12 09:00:18,14.98339675,0.000264,70.0002,183.4888,264.7515,95.3343,-0.00019645,-2.437e-05,0.0,0 STARLINK-5811,1 55787U 23028AY  23316.37521082 -.00002437  00000-0 -19645-3 0  9996,2 55787  70.0002 183.4888 0002640 264.7515  95.3343 14.98339675 39953,6950.163,96.106,573.863,570.193,0.0
55787.0,STARLINK-5811,PAYLOAD,2023-11-12 21:49:22,14.98333432,0.0002762,69.9999,182.1417,269.5865,90.4978,2.4395e-05,1.98e-06,0.0,0 STARLINK-5811,1 55787U 23028AY  23316.90928859  .00000198  00000-0  24395-4 0  9997,2 55787  69.9999 182.1417 0002762 269.5865  90.4978 14.98333432 40031,6950.182,96.107,573.967,570.128,0.0
55787.0,STARLINK-5811,PAYLOAD,2023-11-13 01:01:38,14.98334297,0.000275,69.9999,181.8051,269.6658,90.4186,3.3696e-05,3.09e-06,0.0,0 STARLINK-5811,1 55787U 23028AY  23317.04280743  .00000309  00000-0  33696-4 0  9994,2 55787  69.9999 181.8051 0002750 269.6658  90.4186 14.98334297 40041,6950.18,96.107,573.956,570.133,0.0
55787.0,STARLINK-5811,PAYLOAD,2023-11-13 09:02:19,14.98330577,0.0002693,69.9999,180.9633,269.9684,90.1166,-7.5856e-06,-1.83e-06,0.0,0 STARLINK-5811,1 55787U 23028AY  23317.37661047 -.00000183  00000-0 -75856-5 0  9997,2 55787  69.9999 180.9633 0002693 269.9684  90.1166 14.98330577 40104,6950.191,96.107,573.928,570.184,0.0
55787.0,STARLINK-5811,PAYLOAD,2023-11-13 21:51:23,14.98331276,0.0002688,69.9999,179.6169,269.8072,90.2779,1.1817e-05,4.8e-07,0.0,0 STARLINK-5811,1 55787U 23028AY  23317.91068894  .00000048  00000-0  11817-4 0  9992,2 55787  69.9999 179.6169 0002688 269.8072  90.2779 14.98331276 40183,6950.189,96.107,573.922,570.186,0.0
